STARLINK-35539          
1 65915U 25225F   25351.33339120  .00024133  00000+0  82416-3 0  9998
2 65915  53.1594 188.2542 0001437  67.0385 116.5514 15.30204648  5752
STARLINK-35521          
1 65916U 25225G   25350.97773358  .00011620  00000+0  40365-3 0  9997
2 65916  53.1582 189.9302 0001218  85.0626 275.0514 15.30214718 11743
STARLINK-35478          
1 65917U 25225H   25350.98089847  .00014184  00000+0  48989-3 0  9990
2 65917  53.1580 189.9507 0001232  90.4639 269.6503 15.30212719 11745
STARLINK-35516          
1 65918U 25225J   25350.83021591  .00012829  00000+0  44467-3 0  9998
2 65918  53.1599 190.4280 0001574  94.6080 265.5101 15.30187882 11725
STARLINK-35519          
1 65919U 25225K   25351.26420480  .00008560  00000+0  30076-3 0  9995
2 65919  53.1588 188.1616 0001335  75.7267 284.3882 15.30205638 11795
STARLINK-33902          
1 65920U 25225L   25351.25797710  .00001373  00000+0  58479-4 0  9992
2 65920  53.1577 188.8285 0001766  82.3648 277.7554 15.30201898 11784
STARLINK-35530          
1 65921U 25225M   25350.99356392  .00015005  00000+0  51765-3 0  9997
2 65921  53.1567 190.0300 0001192  65.3816 294.7309 15.30204169 11745
STARLINK-35544          
1 65922U 25225N   25350.99039613  .00006770  00000+0  24046-3 0  9993
2 65922  53.1574 190.0076 0001231  79.9458 280.1682 15.30205447 11744
STARLINK-35484          
1 65923U 25225P   25351.28109107  .00008843  00000+0  31032-3 0  9999
2 65923  53.1590 188.2622 0001785  92.3467 267.7738 15.30202544 11795
STARLINK-34994          
1 65924U 25225Q   25351.27792682  .00022817  00000+0  77979-3 0  9992
2 65924  53.1608 188.2452 0002054  78.1853 281.9378 15.30213986 11798
STARLINK-35458          
1 65925U 25225R   25350.87970440  .00007188  00000+0  25452-3 0  9991
2 65925  53.1603 190.0248 0001413  70.5119 289.6034 15.30205130 11737
STARLINK-35492          
1 65926U 25225S   25351.27476506  .00009991  00000+0  34913-3 0  9997
2 65926  53.1600 188.2240 0001327  87.9020 272.2133 15.30187692 11799
STARLINK-35494          
1 65927U 25225T   25350.86926339  .00008993  00000+0  31534-3 0  9993
2 65927  53.1589 190.6723 0001204  80.0833 280.0303 15.30205267 11727
STARLINK-35493          
1 65928U 25225U   25350.78813849  .00011194  00000+0  38944-3 0  9995
2 65928  53.1578 190.8782 0001180  70.6131 289.4997 15.30204602 11715
STARLINK-35175          
1 65929U 25225V   25350.83971691  .00020405  00000+0  69911-3 0  9995
2 65929  53.1584 190.4860 0001197  86.1338 273.9799 15.30203187 11721
STARLINK-35513          
1 65930U 25225W   25351.24849028  .00015354  00000+0  52926-3 0  9996
2 65930  53.1576 188.7716 0001166  66.9915 293.1209 15.30210860 11789
