[{"OBJECT_NAME":"STARLINK-35539","OBJECT_ID":"2025-225F","EPOCH":"2025-12-17T08:00:04.999680","MEAN_MOTION":15.30204648,"ECCENTRICITY":0.00014373,"INCLINATION":53.1594,"RA_OF_ASC_NODE":188.2542,"ARG_OF_PERICENTER":67.0385,"MEAN_ANOMALY":116.5514,"EPHEMERIS_TYPE":0,"CLASSIFICATION_TYPE":"U","NORAD_CAT_ID":65915,"ELEMENT_SET_NO":999,"REV_AT_EPOCH":575,"BSTAR":0.00082415716,"MEAN_MOTION_DOT":0.00024133,"MEAN_MOTION_DDOT":0},{"OBJECT_NAME":"STARLINK-35521","OBJECT_ID":"2025-225G","EPOCH":"2025-12-16T23:27:56.181312","MEAN_MOTION":15.30214718,"ECCENTRICITY":0.00012183,"INCLINATION":53.1582,"RA_OF_ASC_NODE":189.9302,"ARG_OF_PERICENTER":85.0626,"MEAN_ANOMALY":275.0514,"EPHEMERIS_TYPE":0,"CLASSIFICATION_TYPE":"U","NORAD_CAT_ID":65916,"ELEMENT_SET_NO":999,"REV_AT_EPOCH":1174,"BSTAR":0.00040364912,"MEAN_MOTION_DOT":0.0001162,"MEAN_MOTION_DDOT":0},{"OBJECT_NAME":"STARLINK-35478","OBJECT_ID":"2025-225H","EPOCH":"2025-12-16T23:32:29.627808","MEAN_MOTION":15.30212719,"ECCENTRICITY":0.00012326,"INCLINATION":53.158,"RA_OF_ASC_NODE":189.9507,"ARG_OF_PERICENTER":90.4639,"MEAN_ANOMALY":269.6503,"EPHEMERIS_TYPE":0,"CLASSIFICATION_TYPE":"U","NORAD_CAT_ID":65917,"ELEMENT_SET_NO":999,"REV_AT_EPOCH":1174,"BSTAR":0.00048989473,"MEAN_MOTION_DOT":0.00014184,"MEAN_MOTION_DDOT":0},{"OBJECT_NAME":"STARLINK-35516","OBJECT_ID":"2025-225J","EPOCH":"2025-12-16T19:55:30.654624","MEAN_MOTION":15.30187882,"ECCENTRICITY":0.00015744,"INCLINATION":53.1599,"RA_OF_ASC_NODE":190.428,"ARG_OF_PERICENTER":94.608,"MEAN_ANOMALY":265.5101,"EPHEMERIS_TYPE":0,"CLASSIFICATION_TYPE":"U","NORAD_CAT_ID":65918,"ELEMENT_SET_NO":999,"REV_AT_EPOCH":1172,"BSTAR":0.00044467259,"MEAN_MOTION_DOT":0.00012829,"MEAN_MOTION_DDOT":0},{"OBJECT_NAME":"STARLINK-35519","OBJECT_ID":"2025-225K","EPOCH":"2025-12-17T06:20:27.294720","MEAN_MOTION":15.30205638,"ECCENTRICITY":0.00013351,"INCLINATION":53.1588,"RA_OF_ASC_NODE":188.1616,"ARG_OF_PERICENTER":75.7267,"MEAN_ANOMALY":284.3882,"EPHEMERIS_TYPE":0,"CLASSIFICATION_TYPE":"U","NORAD_CAT_ID":65919,"ELEMENT_SET_NO":999,"REV_AT_EPOCH":1179,"BSTAR":0.00030076013,"MEAN_MOTION_DOT":8.56e-5,"MEAN_MOTION_DDOT":0},{"OBJECT_NAME":"STARLINK-33902","OBJECT_ID":"2025-225L","EPOCH":"2025-12-17T06:11:29.221440","MEAN_MOTION":15.30201898,"ECCENTRICITY":0.00017665,"INCLINATION":53.1577,"RA_OF_ASC_NODE":188.8285,"ARG_OF_PERICENTER":82.3648,"MEAN_ANOMALY":277.7554,"EPHEMERIS_TYPE":0,"CLASSIFICATION_TYPE":"U","NORAD_CAT_ID":65920,"ELEMENT_SET_NO":999,"REV_AT_EPOCH":1178,"BSTAR":5.8479313e-5,"MEAN_MOTION_DOT":1.373e-5,"MEAN_MOTION_DDOT":0},{"OBJECT_NAME":"STARLINK-35530","OBJECT_ID":"2025-225M","EPOCH":"2025-12-16T23:50:43.922688","MEAN_MOTION":15.30204169,"ECCENTRICITY":0.00011924,"INCLINATION":53.1567,"RA_OF_ASC_NODE":190.03,"ARG_OF_PERICENTER":65.3816,"MEAN_ANOMALY":294.7309,"EPHEMERIS_TYPE":0,"CLASSIFICATION_TYPE":"U","NORAD_CAT_ID":65921,"ELEMENT_SET_NO":999,"REV_AT_EPOCH":1174,"BSTAR":0.00051764519,"MEAN_MOTION_DOT":0.00015005,"MEAN_MOTION_DDOT":0},{"OBJECT_NAME":"STARLINK-35544","OBJECT_ID":"2025-225N","EPOCH":"2025-12-16T23:46:10.225632","MEAN_MOTION":15.30205447,"ECCENTRICITY":0.00012319,"INCLINATION":53.1574,"RA_OF_ASC_NODE":190.0076,"ARG_OF_PERICENTER":79.9458,"MEAN_ANOMALY":280.1682,"EPHEMERIS_TYPE":0,"CLASSIFICATION_TYPE":"U","NORAD_CAT_ID":65922,"ELEMENT_SET_NO":999,"REV_AT_EPOCH":1174,"BSTAR":0.00024045774,"MEAN_MOTION_DOT":6.77e-5,"MEAN_MOTION_DDOT":0},{"OBJECT_NAME":"STARLINK-35484","OBJECT_ID":"2025-225P","EPOCH":"2025-12-17T06:44:46.268448","MEAN_MOTION":15.30202544,"ECCENTRICITY":0.00017858,"INCLINATION":53.159,"RA_OF_ASC_NODE":188.2622,"ARG_OF_PERICENTER":92.3467,"MEAN_ANOMALY":267.7738,"EPHEMERIS_TYPE":0,"CLASSIFICATION_TYPE":"U","NORAD_CAT_ID":65923,"ELEMENT_SET_NO":999,"REV_AT_EPOCH":1179,"BSTAR":0.00031031656,"MEAN_MOTION_DOT":8.843e-5,"MEAN_MOTION_DDOT":0},{"OBJECT_NAME":"STARLINK-34994","OBJECT_ID":"2025-225Q","EPOCH":"2025-12-17T06:40:12.877248","MEAN_MOTION":15.30213986,"ECCENTRICITY":0.00020543,"INCLINATION":53.1608,"RA_OF_ASC_NODE":188.2452,"ARG_OF_PERICENTER":78.1853,"MEAN_ANOMALY":281.9378,"EPHEMERIS_TYPE":0,"CLASSIFICATION_TYPE":"U","NORAD_CAT_ID":65924,"ELEMENT_SET_NO":999,"REV_AT_EPOCH":1179,"BSTAR":0.00077979258,"MEAN_MOTION_DOT":0.00022817,"MEAN_MOTION_DDOT":0},{"OBJECT_NAME":"STARLINK-35458","OBJECT_ID":"2025-225R","EPOCH":"2025-12-16T21:06:46.460160","MEAN_MOTION":15.3020513,"ECCENTRICITY":0.00014133,"INCLINATION":53.1603,"RA_OF_ASC_NODE":190.0248,"ARG_OF_PERICENTER":70.5119,"MEAN_ANOMALY":289.6034,"EPHEMERIS_TYPE":0,"CLASSIFICATION_TYPE":"U","NORAD_CAT_ID":65925,"ELEMENT_SET_NO":999,"REV_AT_EPOCH":1173,"BSTAR":0.00025452416,"MEAN_MOTION_DOT":7.188e-5,"MEAN_MOTION_DDOT":0},{"OBJECT_NAME":"STARLINK-35492","OBJECT_ID":"2025-225S","EPOCH":"2025-12-17T06:35:39.701184","MEAN_MOTION":15.30187692,"ECCENTRICITY":0.00013277,"INCLINATION":53.16,"RA_OF_ASC_NODE":188.224,"ARG_OF_PERICENTER":87.902,"MEAN_ANOMALY":272.2133,"EPHEMERIS_TYPE":0,"CLASSIFICATION_TYPE":"U","NORAD_CAT_ID":65926,"ELEMENT_SET_NO":999,"REV_AT_EPOCH":1179,"BSTAR":0.00034913093,"MEAN_MOTION_DOT":9.991e-5,"MEAN_MOTION_DDOT":0},{"OBJECT_NAME":"STARLINK-35494","OBJECT_ID":"2025-225T","EPOCH":"2025-12-16T20:51:44.356896","MEAN_MOTION":15.30205267,"ECCENTRICITY":0.00012043,"INCLINATION":53.1589,"RA_OF_ASC_NODE":190.6723,"ARG_OF_PERICENTER":80.0833,"MEAN_ANOMALY":280.0303,"EPHEMERIS_TYPE":0,"CLASSIFICATION_TYPE":"U","NORAD_CAT_ID":65927,"ELEMENT_SET_NO":999,"REV_AT_EPOCH":1172,"BSTAR":0.00031534287,"MEAN_MOTION_DOT":8.993e-5,"MEAN_MOTION_DDOT":0},{"OBJECT_NAME":"STARLINK-35493","OBJECT_ID":"2025-225U","EPOCH":"2025-12-16T18:54:55.165536","MEAN_MOTION":15.30204602,"ECCENTRICITY":0.00011808,"INCLINATION":53.1578,"RA_OF_ASC_NODE":190.8782,"ARG_OF_PERICENTER":70.6131,"MEAN_ANOMALY":289.4997,"EPHEMERIS_TYPE":0,"CLASSIFICATION_TYPE":"U","NORAD_CAT_ID":65928,"ELEMENT_SET_NO":999,"REV_AT_EPOCH":1171,"BSTAR":0.00038944,"MEAN_MOTION_DOT":0.00011194,"MEAN_MOTION_DDOT":0},{"OBJECT_NAME":"STARLINK-35175","OBJECT_ID":"2025-225V","EPOCH":"2025-12-16T20:09:11.541024","MEAN_MOTION":15.30203187,"ECCENTRICITY":0.00011974,"INCLINATION":53.1584,"RA_OF_ASC_NODE":190.486,"ARG_OF_PERICENTER":86.1338,"MEAN_ANOMALY":273.9799,"EPHEMERIS_TYPE":0,"CLASSIFICATION_TYPE":"U","NORAD_CAT_ID":65929,"ELEMENT_SET_NO":999,"REV_AT_EPOCH":1172,"BSTAR":0.00069911397,"MEAN_MOTION_DOT":0.00020405,"MEAN_MOTION_DDOT":0},{"OBJECT_NAME":"STARLINK-35513","OBJECT_ID":"2025-225W","EPOCH":"2025-12-17T05:57:49.560192","MEAN_MOTION":15.3021086,"ECCENTRICITY":0.00011669,"INCLINATION":53.1576,"RA_OF_ASC_NODE":188.7716,"ARG_OF_PERICENTER":66.9915,"MEAN_ANOMALY":293.1209,"EPHEMERIS_TYPE":0,"CLASSIFICATION_TYPE":"U","NORAD_CAT_ID":65930,"ELEMENT_SET_NO":999,"REV_AT_EPOCH":1178,"BSTAR":0.0005292638,"MEAN_MOTION_DOT":0.00015354,"MEAN_MOTION_DDOT":0}]
